OBJECT_NAME,OBJECT_ID,EPOCH,MEAN_MOTION,ECCENTRICITY,INCLINATION,RA_OF_ASC_NODE,ARG_OF_PERICENTER,MEAN_ANOMALY,EPHEMERIS_TYPE,CLASSIFICATION_TYPE,NORAD_CAT_ID,ELEMENT_SET_NO,REV_AT_EPOCH,BSTAR,MEAN_MOTION_DOT,MEAN_MOTION_DDOT
STARLINK-4190,2022-076R,2026-06-10T22:29:16.894176,15.08834424,.00013775,53.1611,35.4588,89.4853,270.6296,0,U,53001,999,21692,-.4864445E-4,-.1062E-4,0
STARLINK-4121,2022-076S,2026-06-10T22:50:29.224032,15.08830645,.00013508,53.1608,35.3913,88.5547,271.5599,0,U,53002,999,21692,.51047956E-4,.524E-5,0
STARLINK-4255,2022-076T,2026-06-10T20:43:18.053760,15.08832518,.00012151,53.1599,35.7900,85.6337,274.4793,0,U,53003,999,21691,.32314996E-4,.226E-5,0
STARLINK-4253,2022-076U,2026-06-10T22:39:53.421120,15.08828538,.00013997,53.1606,35.4256,91.5300,268.5852,0,U,53004,999,21692,.52070377E-4,.541E-5,0
STARLINK-4288,2022-076V,2026-06-10T22:13:24.762720,15.08825027,.00013311,53.1604,35.5083,95.9239,264.1904,0,U,53005,999,21692,-.10257027E-3,-.1919E-4,0
STARLINK-4290,2022-076W,2026-06-10T22:23:59.384544,15.08832731,.00013067,53.1605,35.4746,90.3074,269.8067,0,U,53006,999,21692,.10459222E-4,-.122E-5,0
STARLINK-4215,2022-076X,2026-06-10T20:27:24.401664,15.08833577,.00013559,53.1627,35.8392,93.0749,267.0398,0,U,53007,999,21691,.35636582E-4,.279E-5,0
STARLINK-4275,2022-076Y,2026-06-10T22:08:05.588160,15.08832325,.00012161,53.1615,35.5159,89.5419,270.5711,0,U,53008,999,21692,-.1450664E-5,-.311E-5,0
STARLINK-4277,2022-076Z,2026-06-10T21:42:55.129536,15.08833399,.00012743,53.1606,25.6026,91.6570,268.4567,0,U,53009,999,21705,.2613654E-5,-.246E-5,0
STARLINK-4263,2022-076AA,2026-06-10T23:06:20.282400,15.08831669,.00013174,53.1605,35.0708,93.9502,266.1640,0,U,53010,999,21693,.3379324E-4,.25E-5,0
STARLINK-4265,2022-076AB,2026-06-10T21:37:37.236288,15.08830389,.0001284,53.1609,25.6198,82.9758,277.1379,0,U,53011,999,21705,.79798765E-4,.982E-5,0
STARLINK-4271,2022-076AC,2026-06-10T21:57:29.551104,15.08837394,.00013108,53.1615,35.5589,89.4179,270.6962,0,U,53012,999,21692,-.15950085E-4,-.542E-5,0
STARLINK-4177,2022-076AD,2026-06-10T21:27:01.389312,15.08834094,.00013794,53.1611,25.6519,83.9006,276.2143,0,U,53013,999,21705,.63694766E-4,.726E-5,0
STARLINK-4183,2022-076AE,2026-06-10T21:48:13.205952,15.08829250,.00011648,53.1603,25.5854,91.0517,269.0608,0,U,53014,999,21705,.11801468E-3,.159E-4,0
STARLINK-4262,2022-076AF,2026-06-10T21:16:25.353984,15.08835092,.00011676,53.1621,25.6842,93.0347,267.0778,0,U,53015,999,21705,.48573066E-4,.485E-5,0
STARLINK-4283,2022-076AG,2026-06-10T23:07:42.722688,15.08828828,.00007792,53.1595,25.3373,92.2257,267.8824,0,U,53016,999,21706,-.51755086E-4,-.1111E-4,0
STARLINK-4281,2022-076AH,2026-06-11T08:00:01.999872,15.53747821,.00013684,53.2142,13.5480,94.0789,24.1471,0,U,53017,999,587,.91349123E-2,.646363E-2,0
STARLINK-4279,2022-076AJ,2026-06-11T08:00:01.999872,15.48043120,.00010115,53.2176,13.7210,86.0206,244.8479,0,U,53018,999,572,.10172324E-1,.583328E-2,0
STARLINK-4282,2022-076AK,2026-06-10T21:11:15.495072,15.08022478,.00014518,53.1713,25.8100,83.3153,276.8004,0,U,53019,999,21705,.43719906E-4,.395E-5,0
STARLINK-4287,2022-076AL,2026-06-10T21:21:43.073568,15.08836622,.0001406,53.1613,25.6682,89.3515,270.7638,0,U,53020,999,21705,.1030948E-3,.1353E-4,0
STARLINK-4216,2022-076AN,2026-06-10T22:41:12.693984,15.08833527,.00012741,53.1607,25.4191,89.2551,270.8586,0,U,53022,999,21706,.60683578E-4,.678E-5,0
STARLINK-4284,2022-076AP,2026-06-10T22:14:43.048032,15.08831243,.00013537,53.1595,25.4945,94.0606,266.0541,0,U,53023,999,21706,.33304638E-4,.242E-5,0
STARLINK-4289,2022-076AQ,2026-06-10T22:20:00.974976,15.08842191,.00011775,53.1604,25.4861,95.5186,264.5940,0,U,53024,999,21706,-.97924354E-4,-.1846E-4,0
STARLINK-4218,2022-076AR,2026-06-10T22:09:25.113312,15.08837142,.00014565,53.1607,25.5205,105.2646,254.8507,0,U,53025,999,21706,-.65909756E-4,-.1337E-4,0
STARLINK-4119,2022-076AS,2026-06-10T22:16:04.733184,15.08830932,.00012537,53.1591,25.3913,72.8531,287.2598,0,U,53026,999,21706,.34597247E-4,.263E-5,0
STARLINK-4158,2022-076AT,2026-06-10T21:53:31.070688,15.08830986,.00010524,53.1599,25.5689,92.9495,267.1616,0,U,53027,999,21706,.42112075E-4,.382E-5,0
STARLINK-4143,2022-076AV,2026-06-10T21:33:38.936448,15.08835874,.00014367,53.1613,15.6325,96.7615,263.3540,0,U,53029,999,21719,-.14107037E-4,-.513E-5,0
STARLINK-4160,2022-076AW,2026-06-10T22:30:38.770272,15.08831549,.00012618,53.1597,25.6450,92.7271,267.3865,0,U,53030,999,21706,-.30461993E-4,-.773E-5,0
STARLINK-4137,2022-076AX,2026-06-10T19:42:21.770784,15.08833752,.00013376,53.1609,15.9794,89.9982,270.1163,0,U,53031,999,21718,.58557556E-4,.644E-5,0
STARLINK-4115,2022-076AY,2026-06-10T21:58:49.560960,15.08828992,.00013687,53.1606,25.5544,88.8493,271.2655,0,U,53032,999,21706,-.40356615E-4,-.93E-5,0
