1 53001U 22076R 26161.93700109 -.00001062 00000+0 -48644-4 0 9991 
2 53001 53.1611 35.4588 0001377 89.4853 270.6296 15.08834424216927 
1 53002U 22076S 26161.95172713 .00000524 00000+0 51048-4 0 9990 
2 53002 53.1608 35.3913 0001350 88.5547 271.5599 15.08830645216923 
1 53003U 22076T 26161.86340340 .00000226 00000+0 32315-4 0 9999 
2 53003 53.1599 35.7900 0001215 85.6337 274.4793 15.08832518216916 
1 53004U 22076U 26161.94436830 .00000541 00000+0 52070-4 0 9999 
2 53004 53.1606 35.4256 0001399 91.5300 268.5852 15.08828538216924 
1 53005U 22076V 26161.92598105 -.00001919 00000+0 -10257-3 0 9994 
2 53005 53.1604 35.5083 0001331 95.9239 264.1904 15.08825027216927 
1 53006U 22076W 26161.93332621 -.00000122 00000+0 10459-4 0 9994 
2 53006 53.1605 35.4746 0001306 90.3074 269.8067 15.08832731216924 
1 53007U 22076X 26161.85236576 .00000279 00000+0 35637-4 0 9995 
2 53007 53.1627 35.8392 0001355 93.0749 267.0398 15.08833577216918 
1 53008U 22076Y 26161.92228690 -.00000311 00000+0 -14507-5 0 9995 
2 53008 53.1615 35.5159 0001216 89.5419 270.5711 15.08832325216923 
1 53009U 22076Z 26161.90480474 -.00000246 00000+0 26137-5 0 9992 
2 53009 53.1606 25.6026 0001274 91.6570 268.4567 15.08833399217055 
1 53010U 22076AA 26161.96273475 .00000250 00000+0 33793-4 0 9990 
2 53010 53.1605 35.0708 0001317 93.9502 266.1640 15.08831669216937 
1 53011U 22076AB 26161.90112542 .00000982 00000+0 79799-4 0 9990 
2 53011 53.1609 25.6198 0001284 82.9758 277.1379 15.08830389217057 
1 53012U 22076AC 26161.91492536 -.00000542 00000+0 -15950-4 0 9999 
2 53012 53.1615 35.5589 0001310 89.4179 270.6962 15.08837394216922 
1 53013U 22076AD 26161.89376608 .00000726 00000+0 63695-4 0 9999 
2 53013 53.1611 25.6519 0001379 83.9006 276.2143 15.08834094217057 
1 53014U 22076AE 26161.90848618 .00001590 00000+0 11801-3 0 9998 
2 53014 53.1603 25.5854 0001164 91.0517 269.0608 15.08829250217053 
1 53015U 22076AF 26161.88640456 .00000485 00000+0 48573-4 0 9995 
2 53015 53.1621 25.6842 0001167 93.0347 267.0778 15.08835092217055 
1 53016U 22076AG 26161.96368892 -.00001111 00000+0 -51755-4 0 9991 
2 53016 53.1595 25.3373 0000779 92.2257 267.8824 15.08828828217061 
1 53017U 22076AH 26162.33335648 .00646363 00000+0 91349-2 0 9990 
2 53017 53.2142 13.5480 0001368 94.0789 24.1471 15.53747821 5873 
1 53018U 22076AJ 26162.33335648 .00583328 00000+0 10172-1 0 9996 
2 53018 53.2176 13.7210 0001011 86.0206 244.8479 15.48043120 5722 
1 53019U 22076AK 26161.88281823 .00000395 00000+0 43720-4 0 9997 
2 53019 53.1713 25.8100 0001451 83.3153 276.8004 15.08022478217059 
1 53020U 22076AL 26161.89008187 .00001353 00000+0 10309-3 0 9991 
2 53020 53.1613 25.6682 0001406 89.3515 270.7638 15.08836622217051 
1 53022U 22076AN 26161.94528581 .00000678 00000+0 60684-4 0 9995 
2 53022 53.1607 25.4191 0001274 89.2551 270.8586 15.08833527217066 
1 53023U 22076AP 26161.92688713 .00000242 00000+0 33305-4 0 9995 
2 53023 53.1595 25.4945 0001353 94.0606 266.0541 15.08831243217064 
1 53024U 22076AQ 26161.93056684 -.00001846 00000+0 -97924-4 0 9993 
2 53024 53.1604 25.4861 0001177 95.5186 264.5940 15.08842191217066 
1 53025U 22076AR 26161.92320733 -.00001337 00000+0 -65910-4 0 9997 
2 53025 53.1607 25.5205 0001456 105.2646 254.8507 15.08837142217064 
1 53026U 22076AS 26161.92783256 .00000263 00000+0 34597-4 0 9993 
2 53026 53.1591 25.3913 0001253 72.8531 287.2598 15.08830932217068 
1 53027U 22076AT 26161.91216517 .00000382 00000+0 42112-4 0 9998 
2 53027 53.1599 25.5689 0001052 92.9495 267.1616 15.08830986217065 
1 53029U 22076AV 26161.89836732 -.00000513 00000+0 -14107-4 0 9995 
2 53029 53.1613 15.6325 0001436 96.7615 263.3540 15.08835874217192 
1 53030U 22076AW 26161.93794873 -.00000773 00000+0 -30462-4 0 9991 
2 53030 53.1597 25.6450 0001261 92.7271 267.3865 15.08831549217060 
1 53031U 22076AX 26161.82108531 .00000644 00000+0 58558-4 0 9991 
2 53031 53.1609 15.9794 0001337 89.9982 270.1163 15.08833752217183 
1 53032U 22076AY 26161.91585140 -.00000930 00000+0 -40357-4 0 9995 
2 53032 53.1606 25.5544 0001368 88.8493 271.2655 15.08828992217065 
